CCSDS_OMM_VERS = 2.0
CREATION_DATE  = 
ORIGINATOR     = 

OBJECT_NAME    = CORAL
OBJECT_ID      = 1998-067YA
CENTER_NAME    = EARTH
REF_FRAME      = TEME
TIME_SYSTEM    = UTC
MEAN_ELEMENT_THEORY = SGP/SGP4

EPOCH          = 2026-03-24T22:12:47.608128
MEAN_MOTION    = 15.56874692
ECCENTRICITY   = .00122878
INCLINATION    = 51.6305
RA_OF_ASC_NODE = 355.3995
ARG_OF_PERICENTER = 230.2179
MEAN_ANOMALY   = 129.7731

EPHEMERIS_TYPE = 0
CLASSIFICATION_TYPE = U
NORAD_CAT_ID   = 67684
ELEMENT_SET_NO = 999
REV_AT_EPOCH   = 716
BSTAR          = .98476951E-3
MEAN_MOTION_DOT = .72525E-3
MEAN_MOTION_DDOT = 0

CCSDS_OMM_VERS = 2.0
CREATION_DATE  = 
ORIGINATOR     = 

OBJECT_NAME    = GXIBA-1
OBJECT_ID      = 1998-067YB
CENTER_NAME    = EARTH
REF_FRAME      = TEME
TIME_SYSTEM    = UTC
MEAN_ELEMENT_THEORY = SGP/SGP4

EPOCH          = 2026-03-24T23:23:49.767648
MEAN_MOTION    = 15.53588882
ECCENTRICITY   = .00118498
INCLINATION    = 51.6331
RA_OF_ASC_NODE = 355.7329
ARG_OF_PERICENTER = 238.3998
MEAN_ANOMALY   = 121.5836

EPHEMERIS_TYPE = 0
CLASSIFICATION_TYPE = U
NORAD_CAT_ID   = 67685
ELEMENT_SET_NO = 999
REV_AT_EPOCH   = 716
BSTAR          = .63204593E-3
MEAN_MOTION_DOT = .40871E-3
MEAN_MOTION_DDOT = 0

CCSDS_OMM_VERS = 2.0
CREATION_DATE  = 
ORIGINATOR     = 

OBJECT_NAME    = UITMSAT-2
OBJECT_ID      = 1998-067YC
CENTER_NAME    = EARTH
REF_FRAME      = TEME
TIME_SYSTEM    = UTC
MEAN_ELEMENT_THEORY = SGP/SGP4

EPOCH          = 2026-03-24T18:28:17.417856
MEAN_MOTION    = 15.54430912
ECCENTRICITY   = .00088048
INCLINATION    = 51.6329
RA_OF_ASC_NODE = 356.6112
ARG_OF_PERICENTER = 208.2356
MEAN_ANOMALY   = 151.8159

EPHEMERIS_TYPE = 0
CLASSIFICATION_TYPE = U
NORAD_CAT_ID   = 67686
ELEMENT_SET_NO = 999
REV_AT_EPOCH   = 713
BSTAR          = .77298282E-3
MEAN_MOTION_DOT = .51668E-3
MEAN_MOTION_DDOT = 0

CCSDS_OMM_VERS = 2.0
CREATION_DATE  = 
ORIGINATOR     = 

OBJECT_NAME    = HMU-SAT2
OBJECT_ID      = 1998-067YD
CENTER_NAME    = EARTH
REF_FRAME      = TEME
TIME_SYSTEM    = UTC
MEAN_ELEMENT_THEORY = SGP/SGP4

EPOCH          = 2026-03-24T23:30:01.627200
MEAN_MOTION    = 15.53338979
ECCENTRICITY   = .00084116
INCLINATION    = 51.6326
RA_OF_ASC_NODE = 355.7594
ARG_OF_PERICENTER = 211.5179
MEAN_ANOMALY   = 148.5308

EPHEMERIS_TYPE = 0
CLASSIFICATION_TYPE = U
NORAD_CAT_ID   = 67687
ELEMENT_SET_NO = 999
REV_AT_EPOCH   = 708
BSTAR          = .62313314E-3
MEAN_MOTION_DOT = .39858E-3
MEAN_MOTION_DDOT = 0

CCSDS_OMM_VERS = 2.0
CREATION_DATE  = 
ORIGINATOR     = 

OBJECT_NAME    = LEOPARD
OBJECT_ID      = 1998-067YE
CENTER_NAME    = EARTH
REF_FRAME      = TEME
TIME_SYSTEM    = UTC
MEAN_ELEMENT_THEORY = SGP/SGP4

EPOCH          = 2026-03-24T18:36:20.745504
MEAN_MOTION    = 15.54039220
ECCENTRICITY   = .00086373
INCLINATION    = 51.6324
RA_OF_ASC_NODE = 356.6479
ARG_OF_PERICENTER = 208.8470
MEAN_ANOMALY   = 151.2044

EPHEMERIS_TYPE = 0
CLASSIFICATION_TYPE = U
NORAD_CAT_ID   = 67688
ELEMENT_SET_NO = 999
REV_AT_EPOCH   = 705
BSTAR          = .71836856E-3
MEAN_MOTION_DOT = .47267E-3
MEAN_MOTION_DDOT = 0

CCSDS_OMM_VERS = 2.0
CREATION_DATE  = 
ORIGINATOR     = 

OBJECT_NAME    = CREW DRAGON 12
OBJECT_ID      = 2026-031A
CENTER_NAME    = EARTH
REF_FRAME      = TEME
TIME_SYSTEM    = UTC
MEAN_ELEMENT_THEORY = SGP/SGP4

EPOCH          = 2026-03-24T19:24:53.959968
MEAN_MOTION    = 15.48525391
ECCENTRICITY   = .00062584
INCLINATION    = 51.6344
RA_OF_ASC_NODE = 357.6177
ARG_OF_PERICENTER = 228.0573
MEAN_ANOMALY   = 131.9883

EPHEMERIS_TYPE = 0
CLASSIFICATION_TYPE = U
NORAD_CAT_ID   = 67796
ELEMENT_SET_NO = 999
REV_AT_EPOCH   = 55860
BSTAR          = .18679893E-3
MEAN_MOTION_DOT = .969E-4
MEAN_MOTION_DDOT = 0

CCSDS_OMM_VERS = 2.0
CREATION_DATE  = 
ORIGINATOR     = 

OBJECT_NAME    = PROGRESS-MS 33
OBJECT_ID      = 2026-058A
CENTER_NAME    = EARTH
REF_FRAME      = TEME
TIME_SYSTEM    = UTC
MEAN_ELEMENT_THEORY = SGP/SGP4

EPOCH          = 2026-03-24T19:24:53.959968
MEAN_MOTION    = 15.48525391
ECCENTRICITY   = .00062584
INCLINATION    = 51.6344
RA_OF_ASC_NODE = 357.6177
ARG_OF_PERICENTER = 228.0573
MEAN_ANOMALY   = 131.9883

EPHEMERIS_TYPE = 0
CLASSIFICATION_TYPE = U
NORAD_CAT_ID   = 68319
ELEMENT_SET_NO = 999
REV_AT_EPOCH   = 11
BSTAR          = .18679893E-3
MEAN_MOTION_DOT = .969E-4
MEAN_MOTION_DDOT = 0

